234P/LINEAR,e,11.5355,179.5691,357.3790,3.795666,0.1332822,0.25662696,297.5587,07/13.0/2023,2000,g 12.0,4.0
# From MPC110497
235P/LINEAR,e,10.8657,202.4482,343.7817,3.583202,0.1453105,0.42683235,235.0432,07/13.0/2023,2000,g 12.0,4.0
# From MPEC 2023-J29
236P/LINEAR,e,16.3529,245.5700,119.3626,3.727374,0.1369618,0.50940433,281.7047,07/13.0/2023,2000,g 14.0,4.0
# From MPEC 2023-N16
237P/LINEAR,e,14.0167,245.3593,25.2637,3.510445,0.1498514,0.43396045,8.8884,07/13.0/2023,2000,g 14.5,2.0
# From MPEC 2022-YN2
238P/Read,e,1.2640,51.6256,324.1972,3.165200,0.1750259,0.25136105,70.4739,07/13.0/2023,2000,g 14.5,4.0
# From MPEC 2021-F20
239P/LINEAR,e,11.3055,255.9367,220.3522,4.466825,0.1044012,0.63061300,171.8031,07/13.0/2023,2000,g 17.5,2.0
# From MPEC 2023-CD7
240P/NEAT,e,23.5336,74.9114,351.9684,3.863429,0.1297910,0.45005710,244.3622,07/13.0/2023,2000,g 11.0,4.0
# From MPEC 2022-J42
241P/LINEAR,e,21.0981,305.4580,111.4945,4.922830,0.0902364,0.61043393,64.6960,07/13.0/2023,2000,g 13.5,4.0
# From MPEC 2021-S45
242P/Spahr,e,32.4976,180.3794,245.0798,5.515150,0.0760971,0.28013165,319.5767,07/13.0/2023,2000,g  8.0,4.0
# From MPEC 2022-K19
243P/NEAT,e,7.6425,87.5873,283.6795,3.829374,0.1315262,0.36064327,233.9995,07/13.0/2023,2000,g 12.5,4.0
# From MPEC 2023-J29
244P/Scotti,e,2.2593,353.9987,93.1711,4.897784,0.0909295,0.19951853,21.5718,07/13.0/2023,2000,g  9.0,4.0
# From MPEC 2022-CN4
245P/WISE,e,21.1839,316.6717,316.8268,4.048430,0.1209968,0.45590388,239.9241,07/13.0/2023,2000,g 14.0,4.0
# From MPEC 2023-A50
246P/NEAT,e,16.1635,77.1664,178.8851,4.046618,0.1210782,0.29064750,104.6166,07/13.0/2023,2000,g 10.5,4.0
# From MPEC 2021-F20
247P/LINEAR,e,13.6596,54.0329,47.4018,3.966802,0.1247508,0.62493872,210.1258,07/13.0/2023,2000,g 16.5,2.0
# From MPC 75730
248P/Gibbs,e,6.3512,207.8128,209.8896,5.988519,0.0672551,0.63925855,306.5404,07/13.0/2023,2000,g 14.0,4.0
# From MPEC 2022-YN2
249P/LINEAR,e,8.3858,239.0616,65.7500,2.763928,0.2144934,0.81954630,237.8158,07/13.0/2023,2000,g 15.5,4.0
# From MPC110497
250P/Larson,e,13.1507,73.3350,46.0403,3.770678,0.1346093,0.39876806,269.1866,07/13.0/2023,2000,g 14.5,4.0
# From MPC104795
251P/LINEAR,e,23.3866,219.3426,31.2368,3.513701,0.1496431,0.50448021,327.7888,07/13.0/2023,2000,g 16.5,2.0
# From MPEC 2021-S45
252P/LINEAR,e,10.4145,190.9107,343.4010,3.051243,0.1849221,0.67093834,135.4074,07/13.0/2023,2000,g 17.5,4.0
# From MPEC 2020-FB5
253P/PANSTARRS,e,4.9435,146.8724,230.7515,3.463611,0.1529011,0.41461756,288.7689,07/13.0/2023,2000,g 14.5,4.0
# From MPEC 2023-FK0
254P/McNaught,e,32.5604,129.1875,219.6963,4.616808,0.0993554,0.31948062,100.9119,07/13.0/2023,2000,g 11.0,4.0
# From MPEC 2021-UA9
255P/Levy,e,13.4127,275.6552,186.0139,2.942195,0.1952976,0.71159966,60.2860,07/13.0/2023,2000,g 14.1,4.0
# From MPEC 2023-N01
256P/LINEAR,e,27.6204,81.3279,124.1855,4.639382,0.0986311,0.41796592,12.1115,07/13.0/2023,2000,g 14.0,2.0
# From MPEC 2023-A50
257P/Catalina,e,20.2198,207.7133,117.7793,3.764995,0.1349141,0.42975208,139.7156,07/13.0/2023,2000,g 11.5,4.0
# From MPEC 2021-U31
258P/PANSTARRS,e,6.7479,126.2336,25.6931,4.392957,0.1070456,0.20858112,119.9810,07/13.0/2023,2000,g 13.0,4.0
# From MPC106349
259P/Garradd,e,15.8975,51.4328,257.5081,2.728870,0.2186401,0.33888660,113.6694,07/13.0/2023,2000,g 15.5,4.0
# From MPEC 2022-O01
260P/McNaught,e,15.0530,349.3316,18.4627,3.623367,0.1429011,0.60929890,200.1948,07/13.0/2023,2000,g 13.5,4.0
# From MPEC 2021-J28
261P/Larson,e,6.0718,291.0922,67.3006,3.490496,0.1511379,0.42325005,224.2865,07/13.0/2023,2000,g 14.0,4.0
# From MPC 82322
262P/McNaught-Russell,e,29.2987,217.8622,171.0705,6.870891,0.0547248,0.81636063,211.7422,07/13.0/2023,2000,g 13.5,4.0
# From MPEC 2023-N01
263P/Gibbs,e,11.5218,105.5056,35.0475,3.041817,0.1857823,0.59357399,30.3596,07/13.0/2023,2000,g 18.0,4.0
# From MPC114608
264P/Larsen,e,26.0075,219.7613,346.3647,3.885551,0.1286842,0.37562178,186.7668,07/13.0/2023,2000,g 13.0,4.0
# From MPC 79870
265P/LINEAR,e,14.3588,342.9260,33.5079,4.257506,0.1121944,0.64755354,99.1535,07/13.0/2023,2000,g 14.5,4.0
# From MPEC 2021-F20
266P/Christensen,e,3.4269,4.9841,97.6710,3.530706,0.1485634,0.34018752,175.2165,07/13.0/2023,2000,g 14.7,4.0
# From MPC114608
267P/LONEOS,e,6.1444,228.5646,114.2526,3.210113,0.1713656,0.61432394,310.8547,07/13.0/2023,2000,g 19.5,4.0
# From MPC 92277
268P/Bernardi,e,15.6584,126.0092,359.8475,4.596412,0.1000174,0.47644940,307.5383,07/13.0/2023,2000,g 14.0,4.0
# From MPEC 2023-J29
269P/Jedicke,e,7.0827,241.7589,225.6701,7.066089,0.0524729,0.43207372,168.2591,07/13.0/2023,2000,g 10.0,4.0
# From MPC 88332
270P/Gehrels,e,2.9250,223.0467,209.7736,6.656409,0.0573910,0.46944719,211.2783,07/13.0/2023,2000,g  8.0,4.0
# From MPC 92277
271P/van Houten-Lemmon,e,6.8712,9.3108,36.4592,7.034632,0.0528253,0.39597166,192.4957,07/13.0/2023,2000,g 11.0,4.0
# From MPEC 2023-D41
272P/NEAT,e,18.0732,109.4574,27.8910,4.461846,0.1045760,0.45495721,37.7496,07/13.0/2023,2000,g 16.0,2.0
# From MPC 82723
273P/Pons-Gambart,e,136.6153,320.3884,20.2724,31.99107,0.0054470,0.97444699,0.0000,12/22.4789/2012,2000,g 11.5,4.0
# From MPEC 2023-M14
274P/Tombaugh-Tenagra,e,15.8166,81.3242,38.4727,4.377602,0.1076093,0.43970587,49.5553,07/13.0/2023,2000,g 13.9,4.0
# From MPC 81862
275P/Hermann,e,21.2632,348.7473,173.9223,5.783163,0.0708689,0.71310552,274.6542,07/13.0/2023,2000,g 17.0,4.0
# From MPEC 2023-N01
276P/Vorobjov,e,14.8123,211.3405,199.4308,5.328785,0.0801238,0.26842597,318.4794,07/13.0/2023,2000,g 11.5,4.0
# From MPEC 2021-F20
277P/LINEAR,e,16.7817,276.2905,152.3530,3.853500,0.1302930,0.50628378,120.4467,07/13.0/2023,2000,g 15.1,4.0
# From MPEC 2021-S45
278P/McNaught,e,6.6928,15.3584,237.5055,3.678496,0.1397007,0.43781675,144.4774,07/13.0/2023,2000,g 14.0,4.0
# From MPEC 2022-K19
279P/LaSagra,e,5.0509,346.2279,5.8450,3.575830,0.1457601,0.39928270,12.3115,07/13.0/2023,2000,g 14.0,4.0
# From MPEC 2023-J95
280P/Larsen,e,11.7720,131.3818,104.7402,4.529731,0.1022340,0.41714756,357.6765,07/13.0/2023,2000,g 12.5,4.0
# From MPEC 2023-D41
281P/MOSS,e,4.7179,87.1761,26.6663,4.879334,0.0914457,0.17314618,14.7592,07/13.0/2023,2000,g 11.0,4.0
# From MPC133426
282P/,e,5.8118,9.2943,217.6105,4.237798,0.1129780,0.18790857,70.7968,07/13.0/2023,2000,g 13.5,2.0
# From MPEC 2022-K19
283P/Spacewatch,e,14.4563,161.1253,22.2037,4.134758,0.1172274,0.48436874,78.9197,07/13.0/2023,2000,g 16.0,2.0
# From MPEC 2023-D41
284P/McNaught,e,11.8602,144.2657,202.4480,3.676548,0.1398118,0.37521553,93.4613,07/13.0/2023,2000,g 13.0,4.0
# From MPEC 2023-B57
285P/LINEAR,e,25.0375,185.5046,178.3952,4.508026,0.1029733,0.61864825,18.7184,07/13.0/2023,2000,g 15.0,4.0
# From MPEC 2022-X67
286P/Christensen,e,17.0509,283.7856,24.8946,4.112021,0.1182010,0.42647071,50.4190,07/13.0/2023,2000,g 14.0,4.0
# From MPEC 2023-N16
287P/Christensen,e,16.3212,139.0427,189.1376,4.164087,0.1159910,0.27134455,0.7963,07/13.0/2023,2000,g 13.5,4.0
# From MPC133426
288P/,e,3.2383,83.1229,280.2160,3.048248,0.1851948,0.20042189,92.2952,07/13.0/2023,2000,g 16.0,2.0
# From MPEC 2023-HD1
289P/Blanpain,e,5.8998,68.8897,9.8427,3.045136,0.1854787,0.68619799,241.0333,07/13.0/2023,2000,g 19.7,4.0
# From MPC 95214
290P/Jager,e,20.0257,302.6620,181.8380,6.217613,0.0635724,0.62729212,219.9405,07/13.0/2023,2000,g 10.5,4.0
# From MPEC 2023-J29
291P/NEAT,e,6.3094,237.6584,173.5145,4.536413,0.1020082,0.43452198,7.1333,07/13.0/2023,2000,g 13.0,4.0
# From MPEC 2022-K19
292P/Li,e,24.3017,90.9138,319.5625,6.100664,0.0654091,0.58980802,225.2835,07/13.0/2023,2000,g 12.5,4.0
# From MPEC 2022-L66
293P/Spacewatch,e,9.0612,78.3999,40.9282,3.640212,0.1419104,0.41864621,132.7937,07/13.0/2023,2000,g 14.5,4.0
# From MPEC 2020-SI8
294P/LINEAR,e,17.7542,310.5023,236.8866,3.187541,0.1731890,0.60323488,228.4815,07/13.0/2023,2000,g 15.5,4.0
# From MPEC 2022-K19
295P/LINEAR,e,21.0748,7.4270,72.9101,5.304140,0.0806829,0.61728003,270.7700,07/13.0/2023,2000,g 12.0,4.0
# From MPEC 2021-N06
296P/Garradd,e,25.2619,263.5377,349.9553,3.490700,0.1511246,0.47917262,155.4583,07/13.0/2023,2000,g 14.0,4.0
# From MPC102956
297P/Beshore,e,10.3649,95.1137,136.7431,3.475051,0.1521466,0.32072029,135.9166,07/13.0/2023,2000,g 15.0,4.0
# From MPC114609
298P/Christensen,e,7.8706,52.8158,100.6099,3.589870,0.1449058,0.38623959,150.7448,07/13.0/2023,2000,g 15.0,4.0
# From MPEC 2023-N16
299P/Catalina-PANSTARRS,e,10.4672,271.5937,323.7313,4.388987,0.1071908,0.28092293,328.6342,07/13.0/2023,2000,g 11.5,4.0
# From MPEC 2023-J95
300P/Catalina,e,5.6742,95.6191,222.9570,2.698942,0.2222869,0.69171600,20.6470,07/13.0/2023,2000,g 16.0,4.0
# From MPC 89014
301P/LINEAR-NEAT,e,10.3346,351.1594,193.5122,5.742377,0.0716253,0.58561453,232.9692,07/13.0/2023,2000,g 13.0,4.0
# From MPEC 2023-N01
302P/Lemmon-PANSTARRS,e,6.0338,121.7246,208.5300,4.272162,0.1116176,0.23014597,292.4910,07/13.0/2023,2000,g 12.5,4.0
# From MPC 92278
303P/NEAT,e,7.0188,347.9581,357.0077,5.042972,0.0870310,0.51080783,277.1041,07/13.0/2023,2000,g 13.5,4.0
# From MPEC 2022-K19
304P/Ory,e,2.6075,58.9071,335.2754,3.150640,0.1762406,0.60099045,187.4941,07/13.0/2023,2000,g 16.5,4.0
# From MPC101100
305P/Skiff,e,11.6698,240.1040,147.3869,4.638747,0.0986513,0.69401842,311.3556,07/13.0/2023,2000,g 18.0,4.0
# From MPC 92278
306P/LINEAR,e,8.3069,341.3708,0.8941,3.124292,0.1784747,0.59300809,226.0772,07/13.0/2023,2000,g 19.0,4.0
# From MPC 92278
307P/LINEAR,e,4.4347,158.1545,222.1892,5.788943,0.0707628,0.67557014,220.7842,07/13.0/2023,2000,g 15.0,4.0
# From MPEC 2022-C56
308P/Lagerkvist-Carsenty,e,4.8551,63.0362,333.7038,6.599510,0.0581349,0.36470078,173.4434,07/13.0/2023,2000,g 13.0,2.0
# From MPC 94284
309P/LINEAR,e,17.0240,10.1437,49.9395,4.374078,0.1077393,0.61830115,331.9816,07/13.0/2023,2000,g 15.0,4.0
# From MPEC 2022-QD9
310P/Hill,e,13.1258,8.9229,31.6503,4.187284,0.1150285,0.42288178,348.1733,07/13.0/2023,2000,g 13.5,4.0
# From MPEC 2021-BE3
311P/PANSTARRS,e,4.9695,279.2007,144.3896,2.188741,0.3043775,0.11594885,307.2473,07/13.0/2023,2000,g 17.0,4.0
# From MPEC 2021-BE3
